{
    "links": {
        "self": "http://www.neowsapp.com/rest/v1/neo/3735679?api_key=iIulBulltgU6a56xZRHN4H3l9WmuAYTsLGpBGhQ2"
    },
    "id": "3735679",
    "neo_reference_id": "3735679",
    "name": "(2015 XV1)",
    "designation": "2015 XV1",
    "nasa_jpl_url": "http://ssd.jpl.nasa.gov/sbdb.cgi?sstr=3735679",
    "absolute_magnitude_h": 26.9,
    "estimated_diameter": {
        "kilometers": {
            "estimated_diameter_min": 0.0110803882,
            "estimated_diameter_max": 0.0247765013
        },
        "meters": {
            "estimated_diameter_min": 11.0803882126,
            "estimated_diameter_max": 24.7765012606
        },
        "miles": {
            "estimated_diameter_min": 0.0068850319,
            "estimated_diameter_max": 0.0153953994
        },
        "feet": {
            "estimated_diameter_min": 36.3529808636,
            "estimated_diameter_max": 81.2877363957
        }
    },
    "is_potentially_hazardous_asteroid": false,
    "close_approach_data": [
        {
            "close_approach_date": "2015-12-09",
            "close_approach_date_full": "2015-Dec-09 07:24",
            "epoch_date_close_approach": 1449645840000,
            "relative_velocity": {
                "kilometers_per_second": "12.0435846812",
                "kilometers_per_hour": "43356.9048522372",
                "miles_per_hour": "26940.2945733248"
            },
            "miss_distance": {
                "astronomical": "0.0163313029",
                "lunar": "6.3528768281",
                "kilometers": "2443128.128164823",
                "miles": "1518089.4240996374"
            },
            "orbiting_body": "Earth"
        }
    ],
    "orbital_data": {
        "orbit_id": "8",
        "orbit_determination_date": "2017-04-06 08:30:15",
        "first_observation_date": "2015-12-04",
        "last_observation_date": "2015-12-09",
        "data_arc_in_days": 5,
        "observations_used": 37,
        "orbit_uncertainty": "8",
        "minimum_orbit_intersection": ".0114164",
        "jupiter_tisserand_invariant": "3.274",
        "epoch_osculation": "2457361.5",
        "eccentricity": ".6153378360557669",
        "semi_major_axis": "2.343691367771504",
        "inclination": "5.246122741345272",
        "ascending_node_longitude": "251.5181764881247",
        "orbital_period": "1310.536308280831",
        "perihelion_distance": ".9015293931444064",
        "perihelion_argument": "226.6354505767187",
        "aphelion_distance": "3.785853342398602",
        "perihelion_time": "2457395.651171802487",
        "mean_anomaly": "350.6187857816597",
        "mean_motion": ".2746967006753518",
        "equinox": "J2000",
        "orbit_class": {
            "orbit_class_type": "APO",
            "orbit_class_description": "Near-Earth asteroid orbits which cross the Earth’s orbit similar to that of 1862 Apollo",
            "orbit_class_range": "a (semi-major axis) > 1.0 AU; q (perihelion) < 1.017 AU"
        }
    },
    "is_sentry_object": false
}